{
  "type": "FeatureCollection",
  "features": [
    {
      "type": "Feature",
      "properties": {
        "norad_id": 24876,
        "name": "GPS BIIR-2  (PRN 13)",
        "group": "gnss",
        "lat": -52.08431057385807,
        "lon": 45.249713917235425,
        "alt_km": 20348.56717194572,
        "timestamp": "2025-12-20T14:38:02.212328+00:00",
        "meta_object_name": "GPS BIIR-2  (PRN 13)",
        "meta_object_id": "1997-035A",
        "meta_epoch": "2025-12-20T05:04:22.923552",
        "meta_mean_motion": 2.0056375,
        "meta_eccentricity": 0.00968119,
        "meta_inclination": 55.8989,
        "meta_ra_of_asc_node": 105.5767,
        "meta_arg_of_pericenter": 56.9717,
        "meta_mean_anomaly": 303.9301,
        "meta_ephemeris_type": 0,
        "meta_classification_type": "U",
        "meta_norad_cat_id": 24876,
        "meta_element_set_no": 999,
        "meta_rev_at_epoch": 20836,
        "meta_bstar": 0,
        "meta_mean_motion_dot": -8e-08,
        "meta_mean_motion_ddot": 0,
        "tle_line1": "1 24876U 97035A   25354.21137643 -.00000008  00000+0  00000+0 0  9994",
        "tle_line2": "2 24876  55.8989 105.5767 0096811  56.9717 303.9301  2.00563750208360"
      },
      "geometry": {
        "type": "Point",
        "coordinates": [
          45.249713917235425,
          -52.08431057385807
        ]
      }
    },
    {
      "type": "Feature",
      "properties": {
        "norad_id": 26360,
        "name": "GPS BIIR-4  (PRN 20)",
        "group": "gnss",
        "lat": 16.93966536047878,
        "lon": 38.83181840738136,
        "alt_km": 20256.854893940697,
        "timestamp": "2025-12-20T14:38:02.212387+00:00",
        "meta_object_name": "GPS BIIR-4  (PRN 20)",
        "meta_object_id": "2000-025A",
        "meta_epoch": "2025-12-20T02:15:34.027776",
        "meta_mean_motion": 2.00567172,
        "meta_eccentricity": 0.00388878,
        "meta_inclination": 55.0495,
        "meta_ra_of_asc_node": 26.5404,
        "meta_arg_of_pericenter": 242.6813,
        "meta_mean_anomaly": 125.6074,
        "meta_ephemeris_type": 0,
        "meta_classification_type": "U",
        "meta_norad_cat_id": 26360,
        "meta_element_set_no": 999,
        "meta_rev_at_epoch": 18768,
        "meta_bstar": 0,
        "meta_mean_motion_dot": -6.6e-07,
        "meta_mean_motion_ddot": 0,
        "tle_line1": "1 26360U 00025A   25354.09414384 -.00000066  00000+0  00000+0 0  9997",
        "tle_line2": "2 26360  55.0495  26.5404 0038887 242.6813 125.6074  2.00567172187683"
      },
      "geometry": {
        "type": "Point",
        "coordinates": [
          38.83181840738136,
          16.93966536047878
        ]
      }
    },
    {
      "type": "Feature",
      "properties": {
        "norad_id": 26407,
        "name": "GPS BIIR-5  (PRN 22)",
        "group": "gnss",
        "lat": -30.80887110747462,
        "lon": 67.06557392761113,
        "alt_km": 20142.39036514909,
        "timestamp": "2025-12-20T14:38:02.212407+00:00",
        "meta_object_name": "GPS BIIR-5  (PRN 22)",
        "meta_object_id": "2000-040A",
        "meta_epoch": "2025-12-20T01:19:00.172704",
        "meta_mean_motion": 2.0056811,
        "meta_eccentricity": 0.01256107,
        "meta_inclination": 54.8892,
        "meta_ra_of_asc_node": 222.2781,
        "meta_arg_of_pericenter": 301.9338,
        "meta_mean_anomaly": 237.6446,
        "meta_ephemeris_type": 0,
        "meta_classification_type": "U",
        "meta_norad_cat_id": 26407,
        "meta_element_set_no": 999,
        "meta_rev_at_epoch": 18635,
        "meta_bstar": 0,
        "meta_mean_motion_dot": 7.4e-07,
        "meta_mean_motion_ddot": 0,
        "tle_line1": "1 26407U 00040A   25354.05486311  .00000074  00000+0  00000+0 0  9999",
        "tle_line2": "2 26407  54.8892 222.2781 0125610 301.9338 237.6446  2.00568110186351"
      },
      "geometry": {
        "type": "Point",
        "coordinates": [
          67.06557392761113,
          -30.80887110747462
        ]
      }
    },
    {
      "type": "Feature",
      "properties": {
        "norad_id": 27663,
        "name": "GPS BIIR-8  (PRN 16)",
        "group": "gnss",
        "lat": -4.3444075048933595,
        "lon": -140.98035356639846,
        "alt_km": 19965.491046308623,
        "timestamp": "2025-12-20T14:38:02.212422+00:00",
        "meta_object_name": "GPS BIIR-8  (PRN 16)",
        "meta_object_id": "2003-005A",
        "meta_epoch": "2025-12-19T09:46:33.318048",
        "meta_mean_motion": 2.00570594,
        "meta_eccentricity": 0.014769,
        "meta_inclination": 54.9218,
        "meta_ra_of_asc_node": 222.113,
        "meta_arg_of_pericenter": 51.8916,
        "meta_mean_anomaly": 156.0709,
        "meta_ephemeris_type": 0,
        "meta_classification_type": "U",
        "meta_norad_cat_id": 27663,
        "meta_element_set_no": 999,
        "meta_rev_at_epoch": 16770,
        "meta_bstar": 0,
        "meta_mean_motion_dot": 7.6e-07,
        "meta_mean_motion_ddot": 0,
        "tle_line1": "1 27663U 03005A   25353.40733007  .00000076  00000+0  00000+0 0  9995",
        "tle_line2": "2 27663  54.9218 222.1130 0147690  51.8916 156.0709  2.00570594167704"
      },
      "geometry": {
        "type": "Point",
        "coordinates": [
          -140.98035356639846,
          -4.3444075048933595
        ]
      }
    },
    {
      "type": "Feature",
      "properties": {
        "norad_id": 28190,
        "name": "GPS BIIR-11 (PRN 19)",
        "group": "gnss",
        "lat": 20.75034272212631,
        "lon": 87.50378363725493,
        "alt_km": 19899.178536423864,
        "timestamp": "2025-12-20T14:38:02.212436+00:00",
        "meta_object_name": "GPS BIIR-11 (PRN 19)",
        "meta_object_id": "2004-009A",
        "meta_epoch": "2025-12-20T02:10:39.105696",
        "meta_mean_motion": 2.00560582,
        "meta_eccentricity": 0.01084506,
        "meta_inclination": 54.979,
        "meta_ra_of_asc_node": 282.9228,
        "meta_arg_of_pericenter": 167.7566,
        "meta_mean_anomaly": 332.1268,
        "meta_ephemeris_type": 0,
        "meta_classification_type": "U",
        "meta_norad_cat_id": 28190,
        "meta_element_set_no": 999,
        "meta_rev_at_epoch": 15935,
        "meta_bstar": 0,
        "meta_mean_motion_dot": -3.4e-07,
        "meta_mean_motion_ddot": 0,
        "tle_line1": "1 28190U 04009A   25354.09073039 -.00000034  00000+0  00000+0 0  9999",
        "tle_line2": "2 28190  54.9790 282.9228 0108450 167.7566 332.1268  2.00560582159351"
      },
      "geometry": {
        "type": "Point",
        "coordinates": [
          87.50378363725493,
          20.75034272212631
        ]
      }
    },
    {
      "type": "Feature",
      "properties": {
        "norad_id": 28474,
        "name": "GPS BIIR-13 (PRN 02)",
        "group": "gnss",
        "lat": -26.631535898474656,
        "lon": 172.44839951467674,
        "alt_km": 20228.472136092336,
        "timestamp": "2025-12-20T14:38:02.212449+00:00",
        "meta_object_name": "GPS BIIR-13 (PRN 02)",
        "meta_object_id": "2004-045A",
        "meta_epoch": "2025-12-20T01:27:34.335648",
        "meta_mean_motion": 2.00569949,
        "meta_eccentricity": 0.01708935,
        "meta_inclination": 55.237,
        "meta_ra_of_asc_node": 332.1114,
        "meta_arg_of_pericenter": 309.5726,
        "meta_mean_anomaly": 229.0337,
        "meta_ephemeris_type": 0,
        "meta_classification_type": "U",
        "meta_norad_cat_id": 28474,
        "meta_element_set_no": 999,
        "meta_rev_at_epoch": 15483,
        "meta_bstar": 0,
        "meta_mean_motion_dot": -7.8e-07,
        "meta_mean_motion_ddot": 0,
        "tle_line1": "1 28474U 04045A   25354.06081407 -.00000078  00000+0  00000+0 0  9997",
        "tle_line2": "2 28474  55.2370 332.1114 0170893 309.5726 229.0337  2.00569949154835"
      },
      "geometry": {
        "type": "Point",
        "coordinates": [
          172.44839951467674,
          -26.631535898474656
        ]
      }
    },
    {
      "type": "Feature",
      "properties": {
        "norad_id": 28874,
        "name": "GPS BIIRM-1 (PRN 17)",
        "group": "gnss",
        "lat": 5.8561178911125715,
        "lon": 96.25967391540946,
        "alt_km": 20356.976212863377,
        "timestamp": "2025-12-20T14:38:02.212463+00:00",
        "meta_object_name": "GPS BIIRM-1 (PRN 17)",
        "meta_object_id": "2005-038A",
        "meta_epoch": "2025-12-20T01:24:11.888352",
        "meta_mean_motion": 2.00578006,
        "meta_eccentricity": 0.01314124,
        "meta_inclination": 55.0254,
        "meta_ra_of_asc_node": 280.4063,
        "meta_arg_of_pericenter": 293.7176,
        "meta_mean_anomaly": 202.3277,
        "meta_ephemeris_type": 0,
        "meta_classification_type": "U",
        "meta_norad_cat_id": 28874,
        "meta_element_set_no": 999,
        "meta_rev_at_epoch": 14824,
        "meta_bstar": 0,
        "meta_mean_motion_dot": -3e-07,
        "meta_mean_motion_ddot": 0,
        "tle_line1": "1 28874U 05038A   25354.05847093 -.00000030  00000+0  00000+0 0  9992",
        "tle_line2": "2 28874  55.0254 280.4063 0131412 293.7176 202.3277  2.00578006148242"
      },
      "geometry": {
        "type": "Point",
        "coordinates": [
          96.25967391540946,
          5.8561178911125715
        ]
      }
    }
  ]
}